[{"OBJECT_NAME":"FLOCK 4G-33","OBJECT_ID":"2025-009CE","EPOCH":"2026-04-26T17:52:39.360000","MEAN_MOTION":15.24835069,"ECCENTRICITY":0.00067883,"INCLINATION":97.3949,"RA_OF_ASC_NODE":197.2295,"ARG_OF_PERICENTER":141.0601,"MEAN_ANOMALY":219.1127,"EPHEMERIS_TYPE":0,"CLASSIFICATION_TYPE":"U","NORAD_CAT_ID":62685,"ELEMENT_SET_NO":999,"REV_AT_EPOCH":7096,"BSTAR":0.00031519028,"MEAN_MOTION_DOT":7.761e-5,"MEAN_MOTION_DDOT":0},{"OBJECT_NAME":"PELICAN-3","OBJECT_ID":"2025-188A","EPOCH":"2026-04-26T17:44:31.474752","MEAN_MOTION":15.40640905,"ECCENTRICITY":0.00028348,"INCLINATION":97.1985,"RA_OF_ASC_NODE":193.6686,"ARG_OF_PERICENTER":130.855,"MEAN_ANOMALY":229.2943,"EPHEMERIS_TYPE":0,"CLASSIFICATION_TYPE":"U","NORAD_CAT_ID":65315,"ELEMENT_SET_NO":999,"REV_AT_EPOCH":3739,"BSTAR":0.00026214946,"MEAN_MOTION_DOT":0.00010603,"MEAN_MOTION_DDOT":0},{"OBJECT_NAME":"PELICAN-4","OBJECT_ID":"2025-188B","EPOCH":"2026-04-26T18:06:28.136448","MEAN_MOTION":15.40566958,"ECCENTRICITY":0.00045721,"INCLINATION":97.1992,"RA_OF_ASC_NODE":193.8357,"ARG_OF_PERICENTER":144.5601,"MEAN_ANOMALY":215.5951,"EPHEMERIS_TYPE":0,"CLASSIFICATION_TYPE":"U","NORAD_CAT_ID":65316,"ELEMENT_SET_NO":999,"REV_AT_EPOCH":3739,"BSTAR":3.5629035e-5,"MEAN_MOTION_DOT":1.367e-5,"MEAN_MOTION_DDOT":0},{"OBJECT_NAME":"PELICAN-5","OBJECT_ID":"2025-276B","EPOCH":"2026-04-26T18:24:30.292992","MEAN_MOTION":15.28483321,"ECCENTRICITY":0.00045708,"INCLINATION":97.4166,"RA_OF_ASC_NODE":191.9335,"ARG_OF_PERICENTER":146.5411,"MEAN_ANOMALY":213.6118,"EPHEMERIS_TYPE":0,"CLASSIFICATION_TYPE":"U","NORAD_CAT_ID":66667,"ELEMENT_SET_NO":999,"REV_AT_EPOCH":2266,"BSTAR":0.00020111777,"MEAN_MOTION_DOT":5.501e-5,"MEAN_MOTION_DDOT":0},{"OBJECT_NAME":"PELICAN-6","OBJECT_ID":"2025-276AP","EPOCH":"2026-04-26T18:27:17.215200","MEAN_MOTION":15.28864201,"ECCENTRICITY":0.00027481,"INCLINATION":97.4159,"RA_OF_ASC_NODE":192.094,"ARG_OF_PERICENTER":60.8535,"MEAN_ANOMALY":299.2979,"EPHEMERIS_TYPE":0,"CLASSIFICATION_TYPE":"U","NORAD_CAT_ID":66703,"ELEMENT_SET_NO":999,"REV_AT_EPOCH":2267,"BSTAR":0.00021971815,"MEAN_MOTION_DOT":6.087e-5,"MEAN_MOTION_DDOT":0},{"OBJECT_NAME":"FLOCK 4H-1","OBJECT_ID":"2025-276AQ","EPOCH":"2026-04-26T18:35:37.566240","MEAN_MOTION":15.19961536,"ECCENTRICITY":0.00034854,"INCLINATION":97.4194,"RA_OF_ASC_NODE":191.2918,"ARG_OF_PERICENTER":121.9995,"MEAN_ANOMALY":238.1579,"EPHEMERIS_TYPE":0,"CLASSIFICATION_TYPE":"U","NORAD_CAT_ID":66704,"ELEMENT_SET_NO":999,"REV_AT_EPOCH":2262,"BSTAR":0.00035727066,"MEAN_MOTION_DOT":7.622e-5,"MEAN_MOTION_DDOT":0},{"OBJECT_NAME":"FLOCK 4H-2","OBJECT_ID":"2025-276AR","EPOCH":"2026-04-26T21:26:49.098912","MEAN_MOTION":15.20221557,"ECCENTRICITY":0.00027201,"INCLINATION":97.419,"RA_OF_ASC_NODE":191.4304,"ARG_OF_PERICENTER":119.5749,"MEAN_ANOMALY":240.5758,"EPHEMERIS_TYPE":0,"CLASSIFICATION_TYPE":"U","NORAD_CAT_ID":66705,"ELEMENT_SET_NO":999,"REV_AT_EPOCH":2264,"BSTAR":0.0003421364,"MEAN_MOTION_DOT":7.351e-5,"MEAN_MOTION_DDOT":0},{"OBJECT_NAME":"FLOCK 4H-3","OBJECT_ID":"2025-276AS","EPOCH":"2026-04-26T18:31:53.457600","MEAN_MOTION":15.19346509,"ECCENTRICITY":0.00046205,"INCLINATION":97.4257,"RA_OF_ASC_NODE":191.2689,"ARG_OF_PERICENTER":160.9613,"MEAN_ANOMALY":199.1795,"EPHEMERIS_TYPE":0,"CLASSIFICATION_TYPE":"U","NORAD_CAT_ID":66706,"ELEMENT_SET_NO":999,"REV_AT_EPOCH":2261,"BSTAR":0.00040221008,"MEAN_MOTION_DOT":8.439e-5,"MEAN_MOTION_DDOT":0},{"OBJECT_NAME":"FLOCK 4H-4","OBJECT_ID":"2025-276AT","EPOCH":"2026-04-26T17:31:48.132480","MEAN_MOTION":15.19103015,"ECCENTRICITY":0.00051698,"INCLINATION":97.4243,"RA_OF_ASC_NODE":191.1399,"ARG_OF_PERICENTER":164.2164,"MEAN_ANOMALY":195.9233,"EPHEMERIS_TYPE":0,"CLASSIFICATION_TYPE":"U","NORAD_CAT_ID":66707,"ELEMENT_SET_NO":999,"REV_AT_EPOCH":2260,"BSTAR":0.00036661515,"MEAN_MOTION_DOT":7.631e-5,"MEAN_MOTION_DDOT":0},{"OBJECT_NAME":"FLOCK 4H-5","OBJECT_ID":"2025-276AU","EPOCH":"2026-04-26T18:28:21.957312","MEAN_MOTION":15.20014584,"ECCENTRICITY":0.00022243,"INCLINATION":97.4194,"RA_OF_ASC_NODE":191.3028,"ARG_OF_PERICENTER":115.5918,"MEAN_ANOMALY":244.5547,"EPHEMERIS_TYPE":0,"CLASSIFICATION_TYPE":"U","NORAD_CAT_ID":66708,"ELEMENT_SET_NO":999,"REV_AT_EPOCH":2262,"BSTAR":0.0003875777,"MEAN_MOTION_DOT":8.287e-5,"MEAN_MOTION_DDOT":0},{"OBJECT_NAME":"FLOCK 4H-6","OBJECT_ID":"2025-276AV","EPOCH":"2026-04-26T17:35:55.715136","MEAN_MOTION":15.19678102,"ECCENTRICITY":0.0004435,"INCLINATION":97.4244,"RA_OF_ASC_NODE":191.2958,"ARG_OF_PERICENTER":136.0747,"MEAN_ANOMALY":224.0841,"EPHEMERIS_TYPE":0,"CLASSIFICATION_TYPE":"U","NORAD_CAT_ID":66709,"ELEMENT_SET_NO":999,"REV_AT_EPOCH":2261,"BSTAR":0.00034984379,"MEAN_MOTION_DOT":7.401e-5,"MEAN_MOTION_DDOT":0},{"OBJECT_NAME":"FLOCK 4H-7","OBJECT_ID":"2025-276AW","EPOCH":"2026-04-26T18:26:15.795168","MEAN_MOTION":15.19422699,"ECCENTRICITY":0.00024527,"INCLINATION":97.4202,"RA_OF_ASC_NODE":191.1606,"ARG_OF_PERICENTER":169.0472,"MEAN_ANOMALY":191.0816,"EPHEMERIS_TYPE":0,"CLASSIFICATION_TYPE":"U","NORAD_CAT_ID":66710,"ELEMENT_SET_NO":999,"REV_AT_EPOCH":2261,"BSTAR":0.00037655726,"MEAN_MOTION_DOT":7.912e-5,"MEAN_MOTION_DDOT":0},{"OBJECT_NAME":"FLOCK 4H-8","OBJECT_ID":"2025-276AX","EPOCH":"2026-04-26T21:29:53.101536","MEAN_MOTION":15.195034,"ECCENTRICITY":0.00038353,"INCLINATION":97.4242,"RA_OF_ASC_NODE":191.3827,"ARG_OF_PERICENTER":169.9293,"MEAN_ANOMALY":190.2019,"EPHEMERIS_TYPE":0,"CLASSIFICATION_TYPE":"U","NORAD_CAT_ID":66711,"ELEMENT_SET_NO":999,"REV_AT_EPOCH":2263,"BSTAR":0.00036039863,"MEAN_MOTION_DOT":7.587e-5,"MEAN_MOTION_DDOT":0},{"OBJECT_NAME":"FLOCK 4H-9","OBJECT_ID":"2025-276AY","EPOCH":"2026-04-26T17:27:36.203904","MEAN_MOTION":15.19797977,"ECCENTRICITY":0.0004424,"INCLINATION":97.4235,"RA_OF_ASC_NODE":191.286,"ARG_OF_PERICENTER":141.7123,"MEAN_ANOMALY":218.4427,"EPHEMERIS_TYPE":0,"CLASSIFICATION_TYPE":"U","NORAD_CAT_ID":66712,"ELEMENT_SET_NO":999,"REV_AT_EPOCH":2261,"BSTAR":0.00036066887,"MEAN_MOTION_DOT":7.659e-5,"MEAN_MOTION_DDOT":0},{"OBJECT_NAME":"FLOCK 4H-10","OBJECT_ID":"2025-276AZ","EPOCH":"2026-04-26T22:02:43.722240","MEAN_MOTION":15.19227886,"ECCENTRICITY":0.00050858,"INCLINATION":97.4208,"RA_OF_ASC_NODE":191.2812,"ARG_OF_PERICENTER":163.7626,"MEAN_ANOMALY":196.3772,"EPHEMERIS_TYPE":0,"CLASSIFICATION_TYPE":"U","NORAD_CAT_ID":66713,"ELEMENT_SET_NO":999,"REV_AT_EPOCH":2263,"BSTAR":0.00031340319,"MEAN_MOTION_DOT":6.537e-5,"MEAN_MOTION_DDOT":0},{"OBJECT_NAME":"FLOCK 4H-11","OBJECT_ID":"2025-276BA","EPOCH":"2026-04-26T17:59:41.858592","MEAN_MOTION":15.21223972,"ECCENTRICITY":0.0003546,"INCLINATION":97.4219,"RA_OF_ASC_NODE":191.3887,"ARG_OF_PERICENTER":168.5113,"MEAN_ANOMALY":191.6204,"EPHEMERIS_TYPE":0,"CLASSIFICATION_TYPE":"U","NORAD_CAT_ID":66714,"ELEMENT_SET_NO":999,"REV_AT_EPOCH":2262,"BSTAR":0.00080899437,"MEAN_MOTION_DOT":0.00018019,"MEAN_MOTION_DDOT":0}]
