FLOCK 4G-33             
1 62685U 25009CE  26116.74490000  .00007761  00000+0  31519-3 0  9995
2 62685  97.3949 197.2295 0006788 141.0601 219.1127 15.24835069 70965
PELICAN-3               
1 65315U 25188A   26116.73925318  .00010603  00000+0  26215-3 0  9996
2 65315  97.1985 193.6686 0002834 130.8550 229.2943 15.40640905 37396
PELICAN-4               
1 65316U 25188B   26116.75449232  .00001367  00000+0  35629-4 0  9992
2 65316  97.1992 193.8357 0004572 144.5601 215.5951 15.40566958 37394
PELICAN-5               
1 66667U 25276B   26116.76701728  .00005501  00000+0  20112-3 0  9996
2 66667  97.4166 191.9335 0004570 146.5411 213.6118 15.28483321 22660
PELICAN-6               
1 66703U 25276AP  26116.76894925  .00006087  00000+0  21972-3 0  9994
2 66703  97.4159 192.0940 0002748  60.8535 299.2979 15.28864201 22673
FLOCK 4H-1              
1 66704U 25276AQ  26116.77474035  .00007622  00000+0  35727-3 0  9991
2 66704  97.4194 191.2918 0003485 121.9995 238.1579 15.19961536 22629
FLOCK 4H-2              
1 66705U 25276AR  26116.89362383  .00007351  00000+0  34214-3 0  9996
2 66705  97.4190 191.4304 0002720 119.5749 240.5758 15.20221557 22640
FLOCK 4H-3              
1 66706U 25276AS  26116.77214650  .00008439  00000+0  40221-3 0  9990
2 66706  97.4257 191.2689 0004620 160.9613 199.1795 15.19346509 22610
FLOCK 4H-4              
1 66707U 25276AT  26116.73041820  .00007631  00000+0  36662-3 0  9991
2 66707  97.4243 191.1399 0005169 164.2164 195.9233 15.19103015 22603
FLOCK 4H-5              
1 66708U 25276AU  26116.76969858  .00008287  00000+0  38758-3 0  9991
2 66708  97.4194 191.3028 0002224 115.5918 244.5547 15.20014584 22620
FLOCK 4H-6              
1 66709U 25276AV  26116.73328374  .00007401  00000+0  34984-3 0  9995
2 66709  97.4244 191.2958 0004435 136.0747 224.0841 15.19678102 22611
FLOCK 4H-7              
1 66710U 25276AW  26116.76823837  .00007912  00000+0  37656-3 0  9990
2 66710  97.4202 191.1606 0002452 169.0472 191.0816 15.19422699 22617
FLOCK 4H-8              
1 66711U 25276AX  26116.89575349  .00007587  00000+0  36040-3 0  9991
2 66711  97.4242 191.3827 0003835 169.9293 190.2019 15.19503400 22633
FLOCK 4H-9              
1 66712U 25276AY  26116.72750236  .00007659  00000+0  36067-3 0  9993
2 66712  97.4235 191.2860 0004424 141.7123 218.4427 15.19797977 22615
FLOCK 4H-10             
1 66713U 25276AZ  26116.91856160  .00006537  00000+0  31340-3 0  9991
2 66713  97.4208 191.2812 0005085 163.7626 196.3772 15.19227886 22635
FLOCK 4H-11             
1 66714U 25276BA  26116.74979003  .00018019  00000+0  80899-3 0  9996
2 66714  97.4219 191.3887 0003546 168.5113 191.6204 15.21223972 22627
